[
  {
    "OBJECT_NAME": "STARLINK-2499",
    "OBJECT_ID": "21038AA",
    "EPOCH": "2025-11-10T23:02:39.703200",
    "MEAN_MOTION": 15.06395856,
    "ECCENTRICITY": 0.0001467,
    "INCLINATION": 53.0514,
    "RA_OF_ASC_NODE": 165.1193,
    "ARG_OF_PERICENTER": 95.4745,
    "MEAN_ANOMALY": 264.6412,
    "EPHEMERIS_TYPE": 0,
    "CLASSIFICATION_TYPE": "U",
    "NORAD_CAT_ID": 48377,
    "ELEMENT_SET_NO": 999,
    "REV_AT_EPOCH": 24926,
    "BSTAR": 0.00029038999999999996,
    "MEAN_MOTION_DOT": 4.046e-05,
    "MEAN_MOTION_DDOT": 0.0,
    "TLE_LINE1": "1 48377U 21038AA  25314.96018175  .00004046  00000+0  29039-3 0  9994",
    "TLE_LINE2": "2 48377  53.0514 165.1193 0001467  95.4745 264.6412 15.06395856249263",
    "COMMENT": "Grouped by shell and plane from TLE"
  },
  {
    "OBJECT_NAME": "STARLINK-2526",
    "OBJECT_ID": "21038AB",
    "EPOCH": "2025-11-11T00:59:21.122016",
    "MEAN_MOTION": 15.06392958,
    "ECCENTRICITY": 0.0001607,
    "INCLINATION": 53.0517,
    "RA_OF_ASC_NODE": 164.2548,
    "ARG_OF_PERICENTER": 90.1621,
    "MEAN_ANOMALY": 269.9552,
    "EPHEMERIS_TYPE": 0,
    "CLASSIFICATION_TYPE": "U",
    "NORAD_CAT_ID": 48378,
    "ELEMENT_SET_NO": 999,
    "REV_AT_EPOCH": 24928,
    "BSTAR": 0.00012626,
    "MEAN_MOTION_DOT": 1.599e-05,
    "MEAN_MOTION_DDOT": 0.0,
    "TLE_LINE1": "1 48378U 21038AB  25315.04121669  .00001599  00000+0  12626-3 0  9992",
    "TLE_LINE2": "2 48378  53.0517 164.2548 0001607  90.1621 269.9552 15.06392958249287",
    "COMMENT": "Grouped by shell and plane from TLE"
  },
  {
    "OBJECT_NAME": "STARLINK-2612",
    "OBJECT_ID": "21038AC",
    "EPOCH": "2025-11-11T00:54:02.160000",
    "MEAN_MOTION": 15.06403029,
    "ECCENTRICITY": 0.0001349,
    "INCLINATION": 53.0519,
    "RA_OF_ASC_NODE": 164.2651,
    "ARG_OF_PERICENTER": 91.1998,
    "MEAN_ANOMALY": 268.9145,
    "EPHEMERIS_TYPE": 0,
    "CLASSIFICATION_TYPE": "U",
    "NORAD_CAT_ID": 48379,
    "ELEMENT_SET_NO": 999,
    "REV_AT_EPOCH": 24928,
    "BSTAR": 0.00025591000000000004,
    "MEAN_MOTION_DOT": 3.533e-05,
    "MEAN_MOTION_DDOT": 0.0,
    "TLE_LINE1": "1 48379U 21038AC  25315.03752500  .00003533  00000+0  25591-3 0  9991",
    "TLE_LINE2": "2 48379  53.0519 164.2651 0001349  91.1998 268.9145 15.06403029249285",
    "COMMENT": "Grouped by shell and plane from TLE"
  },
  {
    "OBJECT_NAME": "STARLINK-2614",
    "OBJECT_ID": "21038AD",
    "EPOCH": "2025-11-10T21:53:40.108128",
    "MEAN_MOTION": 15.06399549,
    "ECCENTRICITY": 0.0001562,
    "INCLINATION": 53.0516,
    "RA_OF_ASC_NODE": 165.3447,
    "ARG_OF_PERICENTER": 92.3381,
    "MEAN_ANOMALY": 267.7787,
    "EPHEMERIS_TYPE": 0,
    "CLASSIFICATION_TYPE": "U",
    "NORAD_CAT_ID": 48380,
    "ELEMENT_SET_NO": 999,
    "REV_AT_EPOCH": 24925,
    "BSTAR": 0.00021700000000000002,
    "MEAN_MOTION_DOT": 2.952e-05,
    "MEAN_MOTION_DDOT": 0.0,
    "TLE_LINE1": "1 48380U 21038AD  25314.91226977  .00002952  00000+0  21700-3 0  9995",
    "TLE_LINE2": "2 48380  53.0516 165.3447 0001562  92.3381 267.7787 15.06399549249252",
    "COMMENT": "Grouped by shell and plane from TLE"
  },
  {
    "OBJECT_NAME": "STARLINK-2630",
    "OBJECT_ID": "21038AE",
    "EPOCH": "2025-11-11T00:48:43.845120",
    "MEAN_MOTION": 15.06406548,
    "ECCENTRICITY": 0.000171,
    "INCLINATION": 53.053,
    "RA_OF_ASC_NODE": 164.2876,
    "ARG_OF_PERICENTER": 86.8435,
    "MEAN_ANOMALY": 273.2749,
    "EPHEMERIS_TYPE": 0,
    "CLASSIFICATION_TYPE": "U",
    "NORAD_CAT_ID": 48381,
    "ELEMENT_SET_NO": 999,
    "REV_AT_EPOCH": 24928,
    "BSTAR": 0.00031741,
    "MEAN_MOTION_DOT": 4.45e-05,
    "MEAN_MOTION_DDOT": 0.0,
    "TLE_LINE1": "1 48381U 21038AE  25315.03384080  .00004450  00000+0  31741-3 0  9991",
    "TLE_LINE2": "2 48381  53.0530 164.2876 0001710  86.8435 273.2749 15.06406548249287",
    "COMMENT": "Grouped by shell and plane from TLE"
  },
  {
    "OBJECT_NAME": "STARLINK-2585",
    "OBJECT_ID": "21038AF",
    "EPOCH": "2025-11-11T00:43:25.580352",
    "MEAN_MOTION": 15.06393708,
    "ECCENTRICITY": 0.0001852,
    "INCLINATION": 53.0554,
    "RA_OF_ASC_NODE": 164.3024,
    "ARG_OF_PERICENTER": 94.4797,
    "MEAN_ANOMALY": 265.6404,
    "EPHEMERIS_TYPE": 0,
    "CLASSIFICATION_TYPE": "U",
    "NORAD_CAT_ID": 48382,
    "ELEMENT_SET_NO": 999,
    "REV_AT_EPOCH": 24928,
    "BSTAR": 0.00020716000000000002,
    "MEAN_MOTION_DOT": 2.805e-05,
    "MEAN_MOTION_DDOT": 0.0,
    "TLE_LINE1": "1 48382U 21038AF  25315.03015718  .00002805  00000+0  20716-3 0  9993",
    "TLE_LINE2": "2 48382  53.0554 164.3024 0001852  94.4797 265.6404 15.06393708249289",
    "COMMENT": "Grouped by shell and plane from TLE"
  },
  {
    "OBJECT_NAME": "STARLINK-2598",
    "OBJECT_ID": "21038AJ",
    "EPOCH": "2025-11-11T06:49:39.506592",
    "MEAN_MOTION": 15.0639388,
    "ECCENTRICITY": 0.0002021,
    "INCLINATION": 53.0545,
    "RA_OF_ASC_NODE": 163.1596,
    "ARG_OF_PERICENTER": 91.4671,
    "MEAN_ANOMALY": 268.6549,
    "EPHEMERIS_TYPE": 0,
    "CLASSIFICATION_TYPE": "U",
    "NORAD_CAT_ID": 48385,
    "ELEMENT_SET_NO": 999,
    "REV_AT_EPOCH": 25054,
    "BSTAR": 0.00012074,
    "MEAN_MOTION_DOT": 1.517e-05,
    "MEAN_MOTION_DDOT": 0.0,
    "TLE_LINE1": "1 48385U 21038AJ  25315.28448503  .00001517  00000+0  12074-3 0  9992",
    "TLE_LINE2": "2 48385  53.0545 163.1596 0002021  91.4671 268.6549 15.06393880250545",
    "COMMENT": "Grouped by shell and plane from TLE"
  },
  {
    "OBJECT_NAME": "STARLINK-3616",
    "OBJECT_ID": "22017Q",
    "EPOCH": "2025-11-10T23:31:37.007616",
    "MEAN_MOTION": 15.08840053,
    "ECCENTRICITY": 9.57e-05,
    "INCLINATION": 53.2163,
    "RA_OF_ASC_NODE": 162.1825,
    "ARG_OF_PERICENTER": 80.0761,
    "MEAN_ANOMALY": 280.0339,
    "EPHEMERIS_TYPE": 0,
    "CLASSIFICATION_TYPE": "U",
    "NORAD_CAT_ID": 51782,
    "ELEMENT_SET_NO": 999,
    "REV_AT_EPOCH": 20426,
    "BSTAR": 0.0,
    "MEAN_MOTION_DOT": -1.008e-05,
    "MEAN_MOTION_DDOT": 0.0,
    "TLE_LINE1": "1 51782U 22017Q   25314.98028944 -.00001008  00000+0 -45262-4 0  9997",
    "TLE_LINE2": "2 51782  53.2163 162.1825 0000957  80.0761 280.0339 15.08840053204266",
    "COMMENT": "Grouped by shell and plane from TLE"
  },
  {
    "OBJECT_NAME": "STARLINK-3632",
    "OBJECT_ID": "22017S",
    "EPOCH": "2025-11-10T23:05:06.430272",
    "MEAN_MOTION": 15.08843271,
    "ECCENTRICITY": 0.0001591,
    "INCLINATION": 53.2151,
    "RA_OF_ASC_NODE": 162.109,
    "ARG_OF_PERICENTER": 84.8165,
    "MEAN_ANOMALY": 275.3009,
    "EPHEMERIS_TYPE": 0,
    "CLASSIFICATION_TYPE": "U",
    "NORAD_CAT_ID": 51784,
    "ELEMENT_SET_NO": 999,
    "REV_AT_EPOCH": 20435,
    "BSTAR": 8.589599999999999e-05,
    "MEAN_MOTION_DOT": 1.079e-05,
    "MEAN_MOTION_DDOT": 0.0,
    "TLE_LINE1": "1 51784U 22017S   25314.96187998  .00001079  00000+0  85896-4 0  9995",
    "TLE_LINE2": "2 51784  53.2151 162.1090 0001591  84.8165 275.3009 15.08843271204350",
    "COMMENT": "Grouped by shell and plane from TLE"
  },
  {
    "OBJECT_NAME": "STARLINK-3638",
    "OBJECT_ID": "22017U",
    "EPOCH": "2025-11-11T06:51:26.499168",
    "MEAN_MOTION": 15.08846306,
    "ECCENTRICITY": 0.0001501,
    "INCLINATION": 53.2104,
    "RA_OF_ASC_NODE": 160.6595,
    "ARG_OF_PERICENTER": 91.6288,
    "MEAN_ANOMALY": 268.4877,
    "EPHEMERIS_TYPE": 0,
    "CLASSIFICATION_TYPE": "U",
    "NORAD_CAT_ID": 51786,
    "ELEMENT_SET_NO": 999,
    "REV_AT_EPOCH": 20440,
    "BSTAR": 0.0,
    "MEAN_MOTION_DOT": -6.02e-06,
    "MEAN_MOTION_DDOT": 0.0,
    "TLE_LINE1": "1 51786U 22017U   25315.28572337 -.00000602  00000+0 -19699-4 0  9999",
    "TLE_LINE2": "2 51786  53.2104 160.6595 0001501  91.6288 268.4877 15.08846306204400",
    "COMMENT": "Grouped by shell and plane from TLE"
  },
  {
    "OBJECT_NAME": "STARLINK-3619",
    "OBJECT_ID": "22017V",
    "EPOCH": "2025-11-10T21:40:19.157664",
    "MEAN_MOTION": 15.0884436,
    "ECCENTRICITY": 0.000139,
    "INCLINATION": 53.2157,
    "RA_OF_ASC_NODE": 162.3754,
    "ARG_OF_PERICENTER": 86.5974,
    "MEAN_ANOMALY": 273.5177,
    "EPHEMERIS_TYPE": 0,
    "CLASSIFICATION_TYPE": "U",
    "NORAD_CAT_ID": 51787,
    "ELEMENT_SET_NO": 999,
    "REV_AT_EPOCH": 20434,
    "BSTAR": 0.00014876,
    "MEAN_MOTION_DOT": 2.081e-05,
    "MEAN_MOTION_DDOT": 0.0,
    "TLE_LINE1": "1 51787U 22017V   25314.90299951  .00002081  00000+0  14876-3 0  9998",
    "TLE_LINE2": "2 51787  53.2157 162.3754 0001390  86.5974 273.5177 15.08844360204347",
    "COMMENT": "Grouped by shell and plane from TLE"
  },
  {
    "OBJECT_NAME": "STARLINK-3641",
    "OBJECT_ID": "22017W",
    "EPOCH": "2025-11-11T00:13:59.518560",
    "MEAN_MOTION": 15.08844067,
    "ECCENTRICITY": 0.0001713,
    "INCLINATION": 53.2149,
    "RA_OF_ASC_NODE": 161.8961,
    "ARG_OF_PERICENTER": 88.7265,
    "MEAN_ANOMALY": 271.3923,
    "EPHEMERIS_TYPE": 0,
    "CLASSIFICATION_TYPE": "U",
    "NORAD_CAT_ID": 51788,
    "ELEMENT_SET_NO": 999,
    "REV_AT_EPOCH": 20600,
    "BSTAR": 4.449e-05,
    "MEAN_MOTION_DOT": 4.2e-06,
    "MEAN_MOTION_DDOT": 0.0,
    "TLE_LINE1": "1 51788U 22017W   25315.00971665  .00000420  00000+0  44490-4 0  9991",
    "TLE_LINE2": "2 51788  53.2149 161.8961 0001713  88.7265 271.3923 15.08844067206003",
    "COMMENT": "Grouped by shell and plane from TLE"
  },
  {
    "OBJECT_NAME": "STARLINK-3639",
    "OBJECT_ID": "22017X",
    "EPOCH": "2025-11-11T06:56:45.600288",
    "MEAN_MOTION": 15.0884352,
    "ECCENTRICITY": 7.5e-05,
    "INCLINATION": 53.2133,
    "RA_OF_ASC_NODE": 160.6413,
    "ARG_OF_PERICENTER": 98.6651,
    "MEAN_ANOMALY": 261.4427,
    "EPHEMERIS_TYPE": 0,
    "CLASSIFICATION_TYPE": "U",
    "NORAD_CAT_ID": 51789,
    "ELEMENT_SET_NO": 999,
    "REV_AT_EPOCH": 20440,
    "BSTAR": 0.00041344,
    "MEAN_MOTION_DOT": 6.299e-05,
    "MEAN_MOTION_DDOT": 0.0,
    "TLE_LINE1": "1 51789U 22017X   25315.28941667  .00006299  00000+0  41344-3 0  9995",
    "TLE_LINE2": "2 51789  53.2133 160.6413 0000750  98.6651 261.4427 15.08843520204409",
    "COMMENT": "Grouped by shell and plane from TLE"
  }
]